{
  "norad_id": 49300,
  "name": "ONEWEB-0374",
  "history": [
    {
      "epoch": "2026-03-28T21:22:25.965984Z",
      "apogee_km": 1206.647226604021,
      "perigee_km": 1204.9438753530703,
      "latitude_deg": -6.200033058617646e-05,
      "longitude_deg": 158.81117617256936,
      "height_km": 1208.8282578088576,
      "semi_major_axis_km": 7583.932550978545,
      "eccentricity": 0.0001123,
      "inclination_deg": 87.895,
      "raan_deg": 305.7239,
      "arg_perigee_deg": 99.5098,
      "mean_anomaly_deg": 260.6158,
      "mean_motion_rev_day": 13.14501449
    },
    {
      "epoch": "2026-03-29T02:51:15.666912Z",
      "apogee_km": 1206.6471899035123,
      "perigee_km": 1204.939288813609,
      "latitude_deg": -7.971316934557385e-05,
      "longitude_deg": 76.33341333567164,
      "height_km": 1208.8326901508174,
      "semi_major_axis_km": 7583.93023935856,
      "eccentricity": 0.0001126,
      "inclination_deg": 87.8951,
      "raan_deg": 305.6783,
      "arg_perigee_deg": 99.9431,
      "mean_anomaly_deg": 260.1825,
      "mean_motion_rev_day": 13.1450205
    },
    {
      "epoch": "2026-03-30T00:46:34.608000Z",
      "apogee_km": 1206.6719810754603,
      "perigee_km": 1204.9159976941783,
      "latitude_deg": -7.122091356062541e-05,
      "longitude_deg": 106.42199133573641,
      "height_km": 1208.860931034669,
      "semi_major_axis_km": 7583.9309893848185,
      "eccentricity": 0.00011577,
      "inclination_deg": 87.895,
      "raan_deg": 305.4961,
      "arg_perigee_deg": 101.4959,
      "mean_anomaly_deg": 258.63,
      "mean_motion_rev_day": 13.14501855
    },
    {
      "epoch": "2026-03-30T13:33:50.678496Z",
      "apogee_km": 1206.6705895236391,
      "perigee_km": 1204.920066263714,
      "latitude_deg": 7.237836848640283e-05,
      "longitude_deg": -86.02643937343964,
      "height_km": 1208.8625074904267,
      "semi_major_axis_km": 7583.932327893676,
      "eccentricity": 0.00011541,
      "inclination_deg": 87.8951,
      "raan_deg": 305.3898,
      "arg_perigee_deg": 101.5491,
      "mean_anomaly_deg": 258.5769,
      "mean_motion_rev_day": 13.14501507
    },
    {
      "epoch": "2026-03-31T13:18:46.133568Z",
      "apogee_km": 1206.6982792019053,
      "perigee_km": 1204.8887533807183,
      "latitude_deg": 9.160894064545829e-05,
      "longitude_deg": -83.4303261821763,
      "height_km": 1208.883960077671,
      "semi_major_axis_km": 7583.9305162913115,
      "eccentricity": 0.0001193,
      "inclination_deg": 87.8951,
      "raan_deg": 305.1923,
      "arg_perigee_deg": 102.6768,
      "mean_anomaly_deg": 257.4496,
      "mean_motion_rev_day": 13.14501978
    },
    {
      "epoch": "2026-04-01T20:22:07.954752Z",
      "apogee_km": 1206.7162838685317,
      "perigee_km": 1204.871871830399,
      "latitude_deg": 2.0564508097110618e-05,
      "longitude_deg": 169.19512416853166,
      "height_km": 1208.9124486637397,
      "semi_major_axis_km": 7583.9310778494655,
      "eccentricity": 0.0001216,
      "inclination_deg": 87.8949,
      "raan_deg": 304.9341,
      "arg_perigee_deg": 104.217,
      "mean_anomaly_deg": 255.9095,
      "mean_motion_rev_day": 13.14501832
    },
    {
      "epoch": "2026-04-02T20:07:03.535104Z",
      "apogee_km": 1206.7502686491334,
      "perigee_km": 1204.8391178624324,
      "latitude_deg": 3.264935112610113e-05,
      "longitude_deg": 171.79131316010694,
      "height_km": 1208.9462946571073,
      "semi_major_axis_km": 7583.931693255782,
      "eccentricity": 0.000126,
      "inclination_deg": 87.8945,
      "raan_deg": 304.7372,
      "arg_perigee_deg": 105.7745,
      "mean_anomaly_deg": 254.3524,
      "mean_motion_rev_day": 13.14501672
    },
    {
      "epoch": "2026-04-02T20:07:03.535968Z",
      "apogee_km": 1206.7501169704983,
      "perigee_km": 1204.8392695410666,
      "latitude_deg": 3.4884981787122995e-05,
      "longitude_deg": 171.79130963202783,
      "height_km": 1208.946253412163,
      "semi_major_axis_km": 7583.931693255782,
      "eccentricity": 0.00012598,
      "inclination_deg": 87.8945,
      "raan_deg": 304.7372,
      "arg_perigee_deg": 105.7745,
      "mean_anomaly_deg": 254.3524,
      "mean_motion_rev_day": 13.14501672
    },
    {
      "epoch": "2026-04-03T14:23:09.364416Z",
      "apogee_km": 1206.7669231015443,
      "perigee_km": 1204.820886431381,
      "latitude_deg": -1.0815421047800983e-06,
      "longitude_deg": -103.13522864951442,
      "height_km": 1208.954938944158,
      "semi_major_axis_km": 7583.930904766462,
      "eccentricity": 0.0001283,
      "inclination_deg": 87.8945,
      "raan_deg": 304.5852,
      "arg_perigee_deg": 106.0634,
      "mean_anomaly_deg": 254.0637,
      "mean_motion_rev_day": 13.14501877
    }
  ]
}